CCSDS_OMM_VERS = 2.0
CREATION_DATE  = 
ORIGINATOR     = 

OBJECT_NAME    = E-KAGAKU-1
OBJECT_ID      = 1998-067XQ
CENTER_NAME    = EARTH
REF_FRAME      = TEME
TIME_SYSTEM    = UTC
MEAN_ELEMENT_THEORY = SGP/SGP4

EPOCH          = 2026-03-12T07:14:55.759200
MEAN_MOTION    = 15.81386675
ECCENTRICITY   = .00057924
INCLINATION    = 51.6239
RA_OF_ASC_NODE = 43.8096
ARG_OF_PERICENTER = 91.6608
MEAN_ANOMALY   = 268.5057

EPHEMERIS_TYPE = 0
CLASSIFICATION_TYPE = U
NORAD_CAT_ID   = 65943
ELEMENT_SET_NO = 999
REV_AT_EPOCH   = 2391
BSTAR          = .11646083E-2
MEAN_MOTION_DOT = .242002E-2
MEAN_MOTION_DDOT = 0

CCSDS_OMM_VERS = 2.0
CREATION_DATE  = 
ORIGINATOR     = 

OBJECT_NAME    = HRC MONOBLOCK CAMERA
OBJECT_ID      = 1998-067XR
CENTER_NAME    = EARTH
REF_FRAME      = TEME
TIME_SYSTEM    = UTC
MEAN_ELEMENT_THEORY = SGP/SGP4

EPOCH          = 2026-03-12T07:44:53.247264
MEAN_MOTION    = 15.62517585
ECCENTRICITY   = .0003793
INCLINATION    = 51.6279
RA_OF_ASC_NODE = 52.2408
ARG_OF_PERICENTER = 104.7218
MEAN_ANOMALY   = 255.4196

EPHEMERIS_TYPE = 0
CLASSIFICATION_TYPE = U
NORAD_CAT_ID   = 66052
ELEMENT_SET_NO = 999
REV_AT_EPOCH   = 2280
BSTAR          = .64284894E-3
MEAN_MOTION_DOT = .58301E-3
MEAN_MOTION_DDOT = 0

CCSDS_OMM_VERS = 2.0
CREATION_DATE  = 
ORIGINATOR     = 

OBJECT_NAME    = HTV-X1
OBJECT_ID      = 2025-241A
CENTER_NAME    = EARTH
REF_FRAME      = TEME
TIME_SYSTEM    = UTC
MEAN_ELEMENT_THEORY = SGP/SGP4

EPOCH          = 2026-03-12T13:44:17.688480
MEAN_MOTION    = 15.22859995
ECCENTRICITY   = .00064054
INCLINATION    = 51.6354
RA_OF_ASC_NODE = 59.1341
ARG_OF_PERICENTER = 182.0421
MEAN_ANOMALY   = 178.0531

EPHEMERIS_TYPE = 0
CLASSIFICATION_TYPE = U
NORAD_CAT_ID   = 66174
ELEMENT_SET_NO = 999
REV_AT_EPOCH   = 2139
BSTAR          = .33943358E-3
MEAN_MOTION_DOT = .7736E-4
MEAN_MOTION_DDOT = 0

CCSDS_OMM_VERS = 2.0
CREATION_DATE  = 
ORIGINATOR     = 

OBJECT_NAME    = SZ-21 MODULE
OBJECT_ID      = 2025-246C
CENTER_NAME    = EARTH
REF_FRAME      = TEME
TIME_SYSTEM    = UTC
MEAN_ELEMENT_THEORY = SGP/SGP4

EPOCH          = 2026-03-12T08:46:08.876928
MEAN_MOTION    = 15.68778467
ECCENTRICITY   = .00011655
INCLINATION    = 41.4732
RA_OF_ASC_NODE = 186.8865
ARG_OF_PERICENTER = 305.7907
MEAN_ANOMALY   = 54.2827

EPHEMERIS_TYPE = 0
CLASSIFICATION_TYPE = U
NORAD_CAT_ID   = 66515
ELEMENT_SET_NO = 999
REV_AT_EPOCH   = 1849
BSTAR          = .34954185E-3
MEAN_MOTION_DOT = .41043E-3
MEAN_MOTION_DDOT = 0

CCSDS_OMM_VERS = 2.0
CREATION_DATE  = 
ORIGINATOR     = 

OBJECT_NAME    = SHENZHOU-22
OBJECT_ID      = 2025-272A
CENTER_NAME    = EARTH
REF_FRAME      = TEME
TIME_SYSTEM    = UTC
MEAN_ELEMENT_THEORY = SGP/SGP4

EPOCH          = 2026-03-12T14:16:53.188320
MEAN_MOTION    = 15.60823490
ECCENTRICITY   = .00067279
INCLINATION    = 41.4662
RA_OF_ASC_NODE = 190.4821
ARG_OF_PERICENTER = 289.9358
MEAN_ANOMALY   = 70.0756

EPHEMERIS_TYPE = 0
CLASSIFICATION_TYPE = U
NORAD_CAT_ID   = 66645
ELEMENT_SET_NO = 999
REV_AT_EPOCH   = 26752
BSTAR          = .30291496E-3
MEAN_MOTION_DOT = .25773E-3
MEAN_MOTION_DDOT = 0

CCSDS_OMM_VERS = 2.0
CREATION_DATE  = 
ORIGINATOR     = 

OBJECT_NAME    = SOYUZ-MS 28
OBJECT_ID      = 2025-275A
CENTER_NAME    = EARTH
REF_FRAME      = TEME
TIME_SYSTEM    = UTC
MEAN_ELEMENT_THEORY = SGP/SGP4

EPOCH          = 2026-03-12T10:00:54.608544
MEAN_MOTION    = 15.48601092
ECCENTRICITY   = .00079757
INCLINATION    = 51.6324
RA_OF_ASC_NODE = 58.8700
ARG_OF_PERICENTER = 184.3112
MEAN_ANOMALY   = 175.7809

EPHEMERIS_TYPE = 0
CLASSIFICATION_TYPE = U
NORAD_CAT_ID   = 66664
ELEMENT_SET_NO = 999
REV_AT_EPOCH   = 55452
BSTAR          = .18173156E-3
MEAN_MOTION_DOT = .9444E-4
MEAN_MOTION_DDOT = 0

CCSDS_OMM_VERS = 2.0
CREATION_DATE  = 
ORIGINATOR     = 

OBJECT_NAME    = DUPLEX
OBJECT_ID      = 1998-067XS
CENTER_NAME    = EARTH
REF_FRAME      = TEME
TIME_SYSTEM    = UTC
MEAN_ELEMENT_THEORY = SGP/SGP4

EPOCH          = 2026-03-12T05:15:07.769952
MEAN_MOTION    = 15.56413150
ECCENTRICITY   = .00025542
INCLINATION    = 51.6293
RA_OF_ASC_NODE = 56.7987
ARG_OF_PERICENTER = 123.1889
MEAN_ANOMALY   = 236.9348

EPHEMERIS_TYPE = 0
CLASSIFICATION_TYPE = U
NORAD_CAT_ID   = 66906
ELEMENT_SET_NO = 999
REV_AT_EPOCH   = 1552
BSTAR          = .52837729E-3
MEAN_MOTION_DOT = .37736E-3
MEAN_MOTION_DDOT = 0

CCSDS_OMM_VERS = 2.0
CREATION_DATE  = 
ORIGINATOR     = 

OBJECT_NAME    = ISS OBJECT XT
OBJECT_ID      = 1998-067XT
CENTER_NAME    = EARTH
REF_FRAME      = TEME
TIME_SYSTEM    = UTC
MEAN_ELEMENT_THEORY = SGP/SGP4

EPOCH          = 2026-03-12T07:41:21.336576
MEAN_MOTION    = 15.70168045
ECCENTRICITY   = .00047148
INCLINATION    = 51.6249
RA_OF_ASC_NODE = 52.2093
ARG_OF_PERICENTER = 95.5605
MEAN_ANOMALY   = 264.5930

EPHEMERIS_TYPE = 0
CLASSIFICATION_TYPE = U
NORAD_CAT_ID   = 66907
ELEMENT_SET_NO = 999
REV_AT_EPOCH   = 1559
BSTAR          = .14376682E-2
MEAN_MOTION_DOT = .18121E-2
MEAN_MOTION_DDOT = 0

CCSDS_OMM_VERS = 2.0
CREATION_DATE  = 
ORIGINATOR     = 

OBJECT_NAME    = ISS OBJECT XU
OBJECT_ID      = 1998-067XU
CENTER_NAME    = EARTH
REF_FRAME      = TEME
TIME_SYSTEM    = UTC
MEAN_ELEMENT_THEORY = SGP/SGP4

EPOCH          = 2026-03-12T04:35:10.207968
MEAN_MOTION    = 15.70253790
ECCENTRICITY   = .00048498
INCLINATION    = 51.6251
RA_OF_ASC_NODE = 52.8423
ARG_OF_PERICENTER = 95.5022
MEAN_ANOMALY   = 264.6529

EPHEMERIS_TYPE = 0
CLASSIFICATION_TYPE = U
NORAD_CAT_ID   = 66908
ELEMENT_SET_NO = 999
REV_AT_EPOCH   = 1557
BSTAR          = .13761345E-2
MEAN_MOTION_DOT = .173902E-2
MEAN_MOTION_DDOT = 0

CCSDS_OMM_VERS = 2.0
CREATION_DATE  = 
ORIGINATOR     = 

OBJECT_NAME    = SILVERSAT
OBJECT_ID      = 1998-067XV
CENTER_NAME    = EARTH
REF_FRAME      = TEME
TIME_SYSTEM    = UTC
MEAN_ELEMENT_THEORY = SGP/SGP4

EPOCH          = 2026-03-12T04:30:05.692032
MEAN_MOTION    = 15.73352402
ECCENTRICITY   = .00054282
INCLINATION    = 51.6249
RA_OF_ASC_NODE = 52.0679
ARG_OF_PERICENTER = 93.6368
MEAN_ANOMALY   = 266.5252

EPHEMERIS_TYPE = 0
CLASSIFICATION_TYPE = U
NORAD_CAT_ID   = 66909
ELEMENT_SET_NO = 999
REV_AT_EPOCH   = 1558
BSTAR          = .15879127E-2
MEAN_MOTION_DOT = .230471E-2
MEAN_MOTION_DDOT = 0

CCSDS_OMM_VERS = 2.0
CREATION_DATE  = 
ORIGINATOR     = 

OBJECT_NAME    = ISS OBJECT XW
OBJECT_ID      = 1998-067XW
CENTER_NAME    = EARTH
REF_FRAME      = TEME
TIME_SYSTEM    = UTC
MEAN_ELEMENT_THEORY = SGP/SGP4

EPOCH          = 2026-03-12T07:35:39.532992
MEAN_MOTION    = 15.69426524
ECCENTRICITY   = .00053484
INCLINATION    = 51.6247
RA_OF_ASC_NODE = 52.1756
ARG_OF_PERICENTER = 102.3551
MEAN_ANOMALY   = 257.8045

EPHEMERIS_TYPE = 0
CLASSIFICATION_TYPE = U
NORAD_CAT_ID   = 66910
ELEMENT_SET_NO = 999
REV_AT_EPOCH   = 1559
BSTAR          = .13156676E-2
MEAN_MOTION_DOT = .160368E-2
MEAN_MOTION_DDOT = 0

CCSDS_OMM_VERS = 2.0
CREATION_DATE  = 
ORIGINATOR     = 

OBJECT_NAME    = ISS OBJECT XX
OBJECT_ID      = 1998-067XX
CENTER_NAME    = EARTH
REF_FRAME      = TEME
TIME_SYSTEM    = UTC
MEAN_ELEMENT_THEORY = SGP/SGP4

EPOCH          = 2026-03-12T11:54:35.862624
MEAN_MOTION    = 15.76985712
ECCENTRICITY   = .00069749
INCLINATION    = 51.6223
RA_OF_ASC_NODE = 49.6058
ARG_OF_PERICENTER = 102.6102
MEAN_ANOMALY   = 257.5678

EPHEMERIS_TYPE = 0
CLASSIFICATION_TYPE = U
NORAD_CAT_ID   = 66911
ELEMENT_SET_NO = 999
REV_AT_EPOCH   = 1563
BSTAR          = .17139524E-2
MEAN_MOTION_DOT = .293883E-2
MEAN_MOTION_DDOT = 0

